[{"OBJECT_NAME":"STARLINK-6153","OBJECT_ID":"2023-061L","EPOCH":"2026-03-09T22:00:01.999584","MEAN_MOTION":15.13402415,"ECCENTRICITY":0.00016491,"INCLINATION":43.0005,"RA_OF_ASC_NODE":195.5705,"ARG_OF_PERICENTER":305.8804,"MEAN_ANOMALY":160.042,"EPHEMERIS_TYPE":0,"CLASSIFICATION_TYPE":"U","NORAD_CAT_ID":56384,"ELEMENT_SET_NO":999,"REV_AT_EPOCH":572,"BSTAR":0.0045665818,"MEAN_MOTION_DOT":0.00083737,"MEAN_MOTION_DDOT":0},{"OBJECT_NAME":"UMBRA-09","OBJECT_ID":"2024-149CB","EPOCH":"2026-03-09T19:52:12.515232","MEAN_MOTION":15.14785586,"ECCENTRICITY":0.0001111,"INCLINATION":97.6984,"RA_OF_ASC_NODE":154.5768,"ARG_OF_PERICENTER":266.3706,"MEAN_ANOMALY":93.7398,"EPHEMERIS_TYPE":0,"CLASSIFICATION_TYPE":"U","NORAD_CAT_ID":60541,"ELEMENT_SET_NO":999,"REV_AT_EPOCH":8566,"BSTAR":0.0012497074,"MEAN_MOTION_DOT":0.00023181,"MEAN_MOTION_DDOT":0}]
